{"type": "FeatureCollection", "features": [ {"type": "Feature", "properties": {"norad_id": 34141, "name": "COSMOS 2251 DEB", "group": "cosmos-2251-debris", "lat": 52.558259955629275, "lon": 52.63311245828492, "alt_km": 706.7901299738032, "timestamp": "2025-12-11T18:59:46.469119+00:00", "meta": {"OBJECT_NAME": "COSMOS 2251 DEB", "OBJECT_ID": "1993-036LN", "EPOCH": "2025-12-11T05:47:50.531712", "MEAN_MOTION": 14.49213895, "ECCENTRICITY": 0.00472725, "INCLINATION": 74.0113, "RA_OF_ASC_NODE": 31.6755, "ARG_OF_PERICENTER": 118.4534, "MEAN_ANOMALY": 309.7265, "EPHEMERIS_TYPE": 0, "CLASSIFICATION_TYPE": "U", "NORAD_CAT_ID": 34141, "ELEMENT_SET_NO": 999, "REV_AT_EPOCH": 87672, "BSTAR": 0.0022737227, "MEAN_MOTION_DOT": 8.769e-05, "MEAN_MOTION_DDOT": 0}, "tle": {"line1": "1 34141U 93036LN  25345.24155708  .00008769  00000+0  22737-2 0  9997", "line2": "2 34141  74.0113  31.6755 0047272 118.4534 309.7265 14.49213895876724"}}, "geometry": {"type": "Point", "coordinates": [52.63311245828492, 52.558259955629275]}}, {"type": "Feature", "properties": {"norad_id": 34270, "name": "COSMOS 2251 DEB", "group": "cosmos-2251-debris", "lat": -40.07998171586238, "lon": -65.50654431114384, "alt_km": 709.7968644397279, "timestamp": "2025-12-11T18:59:46.469129+00:00", "meta": {"OBJECT_NAME": "COSMOS 2251 DEB", "OBJECT_ID": "1993-036LQ", "EPOCH": "2025-12-11T06:04:43.977792", "MEAN_MOTION": 14.65149373, "ECCENTRICITY": 0.00477867, "INCLINATION": 74.0117, "RA_OF_ASC_NODE": 309.4913, "ARG_OF_PERICENTER": 102.7382, "MEAN_ANOMALY": 257.9134, "EPHEMERIS_TYPE": 0, "CLASSIFICATION_TYPE": "U", "NORAD_CAT_ID": 34270, "ELEMENT_SET_NO": 999, "REV_AT_EPOCH": 89074, "BSTAR": 0.0013092551, "MEAN_MOTION_DOT": 7.135e-05, "MEAN_MOTION_DDOT": 0}, "tle": {"line1": "1 34270U 93036LQ  25345.25328678  .00007135  00000+0  13093-2 0  9990", "line2": "2 34270  74.0117 309.4913 0047786 102.7382 257.9134 14.65149373890744"}}, "geometry": {"type": "Point", "coordinates": [-65.50654431114384, -40.07998171586238]}}, {"type": "Feature", "properties": {"norad_id": 34271, "name": "COSMOS 2251 DEB", "group": "cosmos-2251-debris", "lat": -60.82302122800222, "lon": 52.049329634848434, "alt_km": 652.3553688866423, "timestamp": "2025-12-11T18:59:46.469140+00:00", "meta": {"OBJECT_NAME": "COSMOS 2251 DEB", "OBJECT_ID": "1993-036LR", "EPOCH": "2025-12-10T20:43:46.073280", "MEAN_MOTION": 14.70687905, "ECCENTRICITY": 0.0019083, "INCLINATION": 74.02, "RA_OF_ASC_NODE": 202.9725, "ARG_OF_PERICENTER": 257.3396, "MEAN_ANOMALY": 117.7738, "EPHEMERIS_TYPE": 0, "CLASSIFICATION_TYPE": "U", "NORAD_CAT_ID": 34271, "ELEMENT_SET_NO": 999, "REV_AT_EPOCH": 88207, "BSTAR": 0.0027613, "MEAN_MOTION_DOT": 0.0001688, "MEAN_MOTION_DDOT": 0}, "tle": {"line1": "1 34271U 93036LR  25344.86372770  .00016880  00000+0  27613-2 0  9999", "line2": "2 34271  74.0200 202.9725 0019083 257.3396 117.7738 14.70687905882071"}}, "geometry": {"type": "Point", "coordinates": [52.049329634848434, -60.82302122800222]}}, {"type": "Feature", "properties": {"norad_id": 34273, "name": "COSMOS 2251 DEB", "group": "cosmos-2251-debris", "lat": -58.595081363474534, "lon": 61.27977721620431, "alt_km": 694.726981279151, "timestamp": "2025-12-11T18:59:46.469150+00:00", "meta": {"OBJECT_NAME": "COSMOS 2251 DEB", "OBJECT_ID": "1993-036LT", "EPOCH": "2025-12-10T17:41:11.223744", "MEAN_MOTION": 14.61194544, "ECCENTRICITY": 0.00141924, "INCLINATION": 74.0358, "RA_OF_ASC_NODE": 91.2565, "ARG_OF_PERICENTER": 217.0969, "MEAN_ANOMALY": 295.0743, "EPHEMERIS_TYPE": 0, "CLASSIFICATION_TYPE": "U", "NORAD_CAT_ID": 34273, "ELEMENT_SET_NO": 999, "REV_AT_EPOCH": 88592, "BSTAR": 0.001703441, "MEAN_MOTION_DOT": 8.384e-05, "MEAN_MOTION_DDOT": 0}, "tle": {"line1": "1 34273U 93036LT  25344.73693546  .00008384  00000+0  17034-2 0  9990", "line2": "2 34273  74.0358  91.2565 0014192 217.0969 295.0743 14.61194544885928"}}, "geometry": {"type": "Point", "coordinates": [61.27977721620431, -58.595081363474534]}}, {"type": "Feature", "properties": {"norad_id": 34274, "name": "COSMOS 2251 DEB", "group": "cosmos-2251-debris", "lat": 7.101721843692007, "lon": 72.44297290007344, "alt_km": 692.5786437750321, "timestamp": "2025-12-11T18:59:46.469161+00:00", "meta": {"OBJECT_NAME": "COSMOS 2251 DEB", "OBJECT_ID": "1993-036LU", "EPOCH": "2025-12-11T05:59:29.827392", "MEAN_MOTION": 14.64758318, "ECCENTRICITY": 0.00220943, "INCLINATION": 74.0043, "RA_OF_ASC_NODE": 71.4383, "ARG_OF_PERICENTER": 221.4486, "MEAN_ANOMALY": 169.7877, "EPHEMERIS_TYPE": 0, "CLASSIFICATION_TYPE": "U", "NORAD_CAT_ID": 34274, "ELEMENT_SET_NO": 999, "REV_AT_EPOCH": 88654, "BSTAR": 0.0023229546, "MEAN_MOTION_DOT": 0.00012418, "MEAN_MOTION_DDOT": 0}, "tle": {"line1": "1 34274U 93036LU  25345.24965078  .00012418  00000+0  23230-2 0  9998", "line2": "2 34274  74.0043  71.4383 0022094 221.4486 169.7877 14.64758318886543"}}, "geometry": {"type": "Point", "coordinates": [72.44297290007344, 7.101721843692007]}}, {"type": "Feature", "properties": {"norad_id": 34276, "name": "COSMOS 2251 DEB", "group": "cosmos-2251-debris", "lat": -27.894540758391923, "lon": 78.40100450604932, "alt_km": 709.5648958867787, "timestamp": "2025-12-11T18:59:46.469171+00:00", "meta": {"OBJECT_NAME": "COSMOS 2251 DEB", "OBJECT_ID": "1993-036LW", "EPOCH": "2025-12-11T07:52:41.102400", "MEAN_MOTION": 14.57214624, "ECCENTRICITY": 0.00226285, "INCLINATION": 74.0234, "RA_OF_ASC_NODE": 88.0042, "ARG_OF_PERICENTER": 234.8711, "MEAN_ANOMALY": 186.6156, "EPHEMERIS_TYPE": 0, "CLASSIFICATION_TYPE": "U", "NORAD_CAT_ID": 34276, "ELEMENT_SET_NO": 999, "REV_AT_EPOCH": 88572, "BSTAR": 0.0015365104, "MEAN_MOTION_DOT": 6.942e-05, "MEAN_MOTION_DDOT": 0}, "tle": {"line1": "1 34276U 93036LW  25345.32825350  .00006942  00000+0  15365-2 0  9992", "line2": "2 34276  74.0234  88.0042 0022628 234.8711 186.6156 14.57214624885721"}}, "geometry": {"type": "Point", "coordinates": [78.40100450604932, -27.894540758391923]}}, {"type": "Feature", "properties": {"norad_id": 34297, "name": "COSMOS 2251 DEB", "group": "cosmos-2251-debris", "lat": 50.40147100275012, "lon": -53.79881915768511, "alt_km": 758.2481453188448, "timestamp": "2025-12-11T18:59:46.469181+00:00", "meta": {"OBJECT_NAME": "COSMOS 2251 DEB", "OBJECT_ID": "1993-036MT", "EPOCH": "2025-12-11T07:36:33.278976", "MEAN_MOTION": 14.36627597, "ECCENTRICITY": 0.00172298, "INCLINATION": 74.0486, "RA_OF_ASC_NODE": 286.8446, "ARG_OF_PERICENTER": 355.7274, "MEAN_ANOMALY": 124.5907, "EPHEMERIS_TYPE": 0, "CLASSIFICATION_TYPE": "U", "NORAD_CAT_ID": 34297, "ELEMENT_SET_NO": 999, "REV_AT_EPOCH": 88044, "BSTAR": 0.00025965228, "MEAN_MOTION_DOT": 7.39e-06, "MEAN_MOTION_DDOT": 0}, "tle": {"line1": "1 34297U 93036MT  25345.31705184  .00000739  00000+0  25965-3 0  9992", "line2": "2 34297  74.0486 286.8446 0017229 355.7274 124.5907 14.36627597880440"}}, "geometry": {"type": "Point", "coordinates": [-53.79881915768511, 50.40147100275012]}}, {"type": "Feature", "properties": {"norad_id": 34299, "name": "COSMOS 2251 DEB", "group": "cosmos-2251-debris", "lat": -20.535815033704573, "lon": 162.87909804276512, "alt_km": 372.2597148825016, "timestamp": "2025-12-11T18:59:46.469192+00:00", "meta": {"OBJECT_NAME": "COSMOS 2251 DEB", "OBJECT_ID": "1993-036MV", "EPOCH": "2025-12-11T01:19:27.132960", "MEAN_MOTION": 15.69667333, "ECCENTRICITY": 0.00208194, "INCLINATION": 73.9779, "RA_OF_ASC_NODE": 338.3697, "ARG_OF_PERICENTER": 57.844, "MEAN_ANOMALY": 302.4799, "EPHEMERIS_TYPE": 0, "CLASSIFICATION_TYPE": "U", "NORAD_CAT_ID": 34299, "ELEMENT_SET_NO": 999, "REV_AT_EPOCH": 88984, "BSTAR": 0.0076398104, "MEAN_MOTION_DOT": 0.01012583, "MEAN_MOTION_DDOT": 0}, "tle": {"line1": "1 34299U 93036MV  25345.05517515  .01012583  00000+0  76398-2 0  9990", "line2": "2 34299  73.9779 338.3697 0020819  57.8440 302.4799 15.69667333889848"}}, "geometry": {"type": "Point", "coordinates": [162.87909804276512, -20.535815033704573]}}, {"type": "Feature", "properties": {"norad_id": 34301, "name": "COSMOS 2251 DEB", "group": "cosmos-2251-debris", "lat": -15.24263374139994, "lon": -6.929736461184437, "alt_km": 612.9219514522529, "timestamp": "2025-12-11T18:59:46.469202+00:00", "meta": {"OBJECT_NAME": "COSMOS 2251 DEB", "OBJECT_ID": "1993-036MX", "EPOCH": "2025-12-10T21:23:31.255008", "MEAN_MOTION": 14.84387447, "ECCENTRICITY": 0.0011526, "INCLINATION": 74.0055, "RA_OF_ASC_NODE": 170.3754, "ARG_OF_PERICENTER": 230.3248, "MEAN_ANOMALY": 197.0552, "EPHEMERIS_TYPE": 0, "CLASSIFICATION_TYPE": "U", "NORAD_CAT_ID": 34301, "ELEMENT_SET_NO": 999, "REV_AT_EPOCH": 88373, "BSTAR": 0.0044269, "MEAN_MOTION_DOT": 0.00037424, "MEAN_MOTION_DDOT": 0}, "tle": {"line1": "1 34301U 93036MX  25344.89133397  .00037424  00000+0  44269-2 0  9999", "line2": "2 34301  74.0055 170.3754 0011526 230.3248 197.0552 14.84387447883736"}}, "geometry": {"type": "Point", "coordinates": [-6.929736461184437, -15.24263374139994]}}, {"type": "Feature", "properties": {"norad_id": 34302, "name": "COSMOS 2251 DEB", "group": "cosmos-2251-debris", "lat": 71.1456363285046, "lon": -178.54453005643123, "alt_km": 761.6990391062654, "timestamp": "2025-12-11T18:59:46.469213+00:00", "meta": {"OBJECT_NAME": "COSMOS 2251 DEB", "OBJECT_ID": "1993-036MY", "EPOCH": "2025-12-11T03:51:47.337984", "MEAN_MOTION": 14.39321388, "ECCENTRICITY": 0.00786754, "INCLINATION": 74.178, "RA_OF_ASC_NODE": 126.4692, "ARG_OF_PERICENTER": 342.153, "MEAN_ANOMALY": 70.721, "EPHEMERIS_TYPE": 0, "CLASSIFICATION_TYPE": "U", "NORAD_CAT_ID": 34302, "ELEMENT_SET_NO": 999, "REV_AT_EPOCH": 87698, "BSTAR": 0.00095187738, "MEAN_MOTION_DOT": 3.041e-05, "MEAN_MOTION_DDOT": 0}, "tle": {"line1": "1 34302U 93036MY  25345.16096456  .00003041  00000+0  95188-3 0  9990", "line2": "2 34302  74.1780 126.4692 0078675 342.1530  70.7210 14.39321388876989"}}, "geometry": {"type": "Point", "coordinates": [-178.54453005643123, 71.1456363285046]}}]}